[
  {
    "OBJECT_NAME": "STARLINK-1651",
    "OBJECT_ID": "20062AT",
    "EPOCH": "2025-11-11T08:00:03.000384",
    "MEAN_MOTION": 15.44333008,
    "ECCENTRICITY": 0.0009982,
    "INCLINATION": 53.048,
    "RA_OF_ASC_NODE": 130.8843,
    "ARG_OF_PERICENTER": 176.2393,
    "MEAN_ANOMALY": 359.5696,
    "EPHEMERIS_TYPE": 0,
    "CLASSIFICATION_TYPE": "U",
    "NORAD_CAT_ID": 46366,
    "ELEMENT_SET_NO": 999,
    "REV_AT_EPOCH": 579,
    "BSTAR": 0.0047461,
    "MEAN_MOTION_DOT": 0.00228843,
    "MEAN_MOTION_DDOT": 0.0,
    "TLE_LINE1": "1 46366U 20062AT  25315.33336806  .00228843  00000+0  47461-2 0  9993",
    "TLE_LINE2": "2 46366  53.0480 130.8843 0009982 176.2393 359.5696 15.44333008  5798",
    "COMMENT": "Grouped by shell and plane from TLE"
  },
  {
    "OBJECT_NAME": "STARLINK-1724",
    "OBJECT_ID": "20062BC",
    "EPOCH": "2025-11-10T19:01:14.983392",
    "MEAN_MOTION": 15.30959187,
    "ECCENTRICITY": 0.0007972,
    "INCLINATION": 53.0374,
    "RA_OF_ASC_NODE": 130.8415,
    "ARG_OF_PERICENTER": 122.1444,
    "MEAN_ANOMALY": 238.033,
    "EPHEMERIS_TYPE": 0,
    "CLASSIFICATION_TYPE": "U",
    "NORAD_CAT_ID": 46375,
    "ELEMENT_SET_NO": 999,
    "REV_AT_EPOCH": 28722,
    "BSTAR": 0.0033373000000000005,
    "MEAN_MOTION_DOT": 0.00102319,
    "MEAN_MOTION_DDOT": 0.0,
    "TLE_LINE1": "1 46375U 20062BC  25314.79253453  .00102319  00000+0  33373-2 0  9994",
    "TLE_LINE2": "2 46375  53.0374 130.8415 0007972 122.1444 238.0330 15.30959187287222",
    "COMMENT": "Grouped by shell and plane from TLE"
  },
  {
    "OBJECT_NAME": "STARLINK-1892",
    "OBJECT_ID": "20074E",
    "EPOCH": "2025-11-11T04:27:39.187008",
    "MEAN_MOTION": 15.27740205,
    "ECCENTRICITY": 4e-05,
    "INCLINATION": 53.0512,
    "RA_OF_ASC_NODE": 131.7194,
    "ARG_OF_PERICENTER": 131.9972,
    "MEAN_ANOMALY": 228.1061,
    "EPHEMERIS_TYPE": 0,
    "CLASSIFICATION_TYPE": "U",
    "NORAD_CAT_ID": 46743,
    "ELEMENT_SET_NO": 999,
    "REV_AT_EPOCH": 27884,
    "BSTAR": 0.00093355,
    "MEAN_MOTION_DOT": 0.00025378,
    "MEAN_MOTION_DDOT": 0.0,
    "TLE_LINE1": "1 46743U 20074E   25315.18587022  .00025378  00000+0  93355-3 0  9998",
    "TLE_LINE2": "2 46743  53.0512 131.7194 0000400 131.9972 228.1061 15.27740205278846",
    "COMMENT": "Grouped by shell and plane from TLE"
  },
  {
    "OBJECT_NAME": "STARLINK-1894",
    "OBJECT_ID": "20074F",
    "EPOCH": "2025-11-11T08:00:03.000384",
    "MEAN_MOTION": 15.39730379,
    "ECCENTRICITY": 7.29e-05,
    "INCLINATION": 53.0556,
    "RA_OF_ASC_NODE": 130.5547,
    "ARG_OF_PERICENTER": 39.5644,
    "MEAN_ANOMALY": 196.2013,
    "EPHEMERIS_TYPE": 0,
    "CLASSIFICATION_TYPE": "U",
    "NORAD_CAT_ID": 46744,
    "ELEMENT_SET_NO": 999,
    "REV_AT_EPOCH": 575,
    "BSTAR": 0.004779,
    "MEAN_MOTION_DOT": 0.00196493,
    "MEAN_MOTION_DDOT": 0.0,
    "TLE_LINE1": "1 46744U 20074F   25315.33336806  .00196493  00000+0  47790-2 0  9996",
    "TLE_LINE2": "2 46744  53.0556 130.5547 0000729  39.5644 196.2013 15.39730379  5751",
    "COMMENT": "Grouped by shell and plane from TLE"
  },
  {
    "OBJECT_NAME": "STARLINK-1905",
    "OBJECT_ID": "20074H",
    "EPOCH": "2025-11-11T06:22:31.373760",
    "MEAN_MOTION": 15.35675377,
    "ECCENTRICITY": 4.82e-05,
    "INCLINATION": 53.0542,
    "RA_OF_ASC_NODE": 130.4472,
    "ARG_OF_PERICENTER": 178.6598,
    "MEAN_ANOMALY": 181.4405,
    "EPHEMERIS_TYPE": 0,
    "CLASSIFICATION_TYPE": "U",
    "NORAD_CAT_ID": 46746,
    "ELEMENT_SET_NO": 999,
    "REV_AT_EPOCH": 27886,
    "BSTAR": 0.0034817,
    "MEAN_MOTION_DOT": 0.00124188,
    "MEAN_MOTION_DDOT": 0.0,
    "TLE_LINE1": "1 46746U 20074H   25315.26564090  .00124188  00000+0  34817-2 0  9996",
    "TLE_LINE2": "2 46746  53.0542 130.4472 0000482 178.6598 181.4405 15.35675377278860",
    "COMMENT": "Grouped by shell and plane from TLE"
  },
  {
    "OBJECT_NAME": "STARLINK-1911",
    "OBJECT_ID": "20074L",
    "EPOCH": "2025-11-11T08:00:03.000384",
    "MEAN_MOTION": 15.41775533,
    "ECCENTRICITY": 6.71e-05,
    "INCLINATION": 53.0556,
    "RA_OF_ASC_NODE": 130.4192,
    "ARG_OF_PERICENTER": 66.8818,
    "MEAN_ANOMALY": 178.5823,
    "EPHEMERIS_TYPE": 0,
    "CLASSIFICATION_TYPE": "U",
    "NORAD_CAT_ID": 46749,
    "ELEMENT_SET_NO": 999,
    "REV_AT_EPOCH": 581,
    "BSTAR": 0.0031785999999999997,
    "MEAN_MOTION_DOT": 0.00138653,
    "MEAN_MOTION_DDOT": 0.0,
    "TLE_LINE1": "1 46749U 20074L   25315.33336806  .00138653  00000+0  31786-2 0  9993",
    "TLE_LINE2": "2 46749  53.0556 130.4192 0000671  66.8818 178.5823 15.41775533  5816",
    "COMMENT": "Grouped by shell and plane from TLE"
  },
  {
    "OBJECT_NAME": "STARLINK-1922",
    "OBJECT_ID": "20074Q",
    "EPOCH": "2025-11-11T04:53:10.920768",
    "MEAN_MOTION": 15.35306542,
    "ECCENTRICITY": 3.22e-05,
    "INCLINATION": 53.055,
    "RA_OF_ASC_NODE": 131.0865,
    "ARG_OF_PERICENTER": 76.1238,
    "MEAN_ANOMALY": 283.98,
    "EPHEMERIS_TYPE": 0,
    "CLASSIFICATION_TYPE": "U",
    "NORAD_CAT_ID": 46753,
    "ELEMENT_SET_NO": 999,
    "REV_AT_EPOCH": 27885,
    "BSTAR": 0.0013346,
    "MEAN_MOTION_DOT": 0.00046322,
    "MEAN_MOTION_DDOT": 0.0,
    "TLE_LINE1": "1 46753U 20074Q   25315.20359862  .00046322  00000+0  13346-2 0  9994",
    "TLE_LINE2": "2 46753  53.0550 131.0865 0000322  76.1238 283.9800 15.35306542278857",
    "COMMENT": "Grouped by shell and plane from TLE"
  },
  {
    "OBJECT_NAME": "STARLINK-1928",
    "OBJECT_ID": "20074V",
    "EPOCH": "2025-11-11T04:56:21.364512",
    "MEAN_MOTION": 15.36829614,
    "ECCENTRICITY": 0.0001516,
    "INCLINATION": 53.0541,
    "RA_OF_ASC_NODE": 134.0533,
    "ARG_OF_PERICENTER": 167.6395,
    "MEAN_ANOMALY": 192.4645,
    "EPHEMERIS_TYPE": 0,
    "CLASSIFICATION_TYPE": "U",
    "NORAD_CAT_ID": 46758,
    "ELEMENT_SET_NO": 999,
    "REV_AT_EPOCH": 27881,
    "BSTAR": 0.0033367,
    "MEAN_MOTION_DOT": 0.00123494,
    "MEAN_MOTION_DDOT": 0.0,
    "TLE_LINE1": "1 46758U 20074V   25315.20580283  .00123494  00000+0  33367-2 0  9993",
    "TLE_LINE2": "2 46758  53.0541 134.0533 0001516 167.6395 192.4645 15.36829614278811",
    "COMMENT": "Grouped by shell and plane from TLE"
  },
  {
    "OBJECT_NAME": "STARLINK-1931",
    "OBJECT_ID": "20074BD",
    "EPOCH": "2025-11-11T06:39:56.232288",
    "MEAN_MOTION": 15.3514081,
    "ECCENTRICITY": 7.71e-05,
    "INCLINATION": 53.0542,
    "RA_OF_ASC_NODE": 130.3646,
    "ARG_OF_PERICENTER": 195.766,
    "MEAN_ANOMALY": 164.3318,
    "EPHEMERIS_TYPE": 0,
    "CLASSIFICATION_TYPE": "U",
    "NORAD_CAT_ID": 46790,
    "ELEMENT_SET_NO": 999,
    "REV_AT_EPOCH": 27886,
    "BSTAR": 0.0034210000000000004,
    "MEAN_MOTION_DOT": 0.00119876,
    "MEAN_MOTION_DDOT": 0.0,
    "TLE_LINE1": "1 46790U 20074BD  25315.27773417  .00119876  00000+0  34210-2 0  9996",
    "TLE_LINE2": "2 46790  53.0542 130.3646 0000771 195.7660 164.3318 15.35140810278864",
    "COMMENT": "Grouped by shell and plane from TLE"
  },
  {
    "OBJECT_NAME": "STARLINK-1942",
    "OBJECT_ID": "20074BH",
    "EPOCH": "2025-11-11T08:00:03.000384",
    "MEAN_MOTION": 15.28822798,
    "ECCENTRICITY": 0.0001145,
    "INCLINATION": 53.0531,
    "RA_OF_ASC_NODE": 131.5871,
    "ARG_OF_PERICENTER": 112.3632,
    "MEAN_ANOMALY": 94.8888,
    "EPHEMERIS_TYPE": 0,
    "CLASSIFICATION_TYPE": "U",
    "NORAD_CAT_ID": 46794,
    "ELEMENT_SET_NO": 999,
    "REV_AT_EPOCH": 580,
    "BSTAR": 0.0035811,
    "MEAN_MOTION_DOT": 0.00102728,
    "MEAN_MOTION_DDOT": 0.0,
    "TLE_LINE1": "1 46794U 20074BH  25315.33336806  .00102728  00000+0  35811-2 0  9990",
    "TLE_LINE2": "2 46794  53.0531 131.5871 0001145 112.3632  94.8888 15.28822798  5804",
    "COMMENT": "Grouped by shell and plane from TLE"
  },
  {
    "OBJECT_NAME": "STARLINK-1965",
    "OBJECT_ID": "21009U",
    "EPOCH": "2025-11-11T05:08:46.401216",
    "MEAN_MOTION": 15.43180909,
    "ECCENTRICITY": 0.0015499,
    "INCLINATION": 53.0258,
    "RA_OF_ASC_NODE": 139.7437,
    "ARG_OF_PERICENTER": 136.1646,
    "MEAN_ANOMALY": 224.0591,
    "EPHEMERIS_TYPE": 0,
    "CLASSIFICATION_TYPE": "U",
    "NORAD_CAT_ID": 47566,
    "ELEMENT_SET_NO": 999,
    "REV_AT_EPOCH": 26369,
    "BSTAR": 0.0012763,
    "MEAN_MOTION_DOT": 0.00057732,
    "MEAN_MOTION_DDOT": 0.0,
    "TLE_LINE1": "1 47566U 21009U   25315.21442594  .00057732  00000+0  12763-2 0  9991",
    "TLE_LINE2": "2 47566  53.0258 139.7437 0015499 136.1646 224.0591 15.43180909263691",
    "COMMENT": "Grouped by shell and plane from TLE"
  },
  {
    "OBJECT_NAME": "STARLINK-1978",
    "OBJECT_ID": "21009AE",
    "EPOCH": "2025-11-10T20:22:41.638656",
    "MEAN_MOTION": 15.55493912,
    "ECCENTRICITY": 0.0010688,
    "INCLINATION": 53.0475,
    "RA_OF_ASC_NODE": 135.6633,
    "ARG_OF_PERICENTER": 138.2718,
    "MEAN_ANOMALY": 221.9109,
    "EPHEMERIS_TYPE": 0,
    "CLASSIFICATION_TYPE": "U",
    "NORAD_CAT_ID": 47576,
    "ELEMENT_SET_NO": 999,
    "REV_AT_EPOCH": 26372,
    "BSTAR": 0.00098513,
    "MEAN_MOTION_DOT": 0.00068736,
    "MEAN_MOTION_DDOT": 0.0,
    "TLE_LINE1": "1 47576U 21009AE  25314.84909304  .00068736  00000+0  98513-3 0  9991",
    "TLE_LINE2": "2 47576  53.0475 135.6633 0010688 138.2718 221.9109 15.55493912263723",
    "COMMENT": "Grouped by shell and plane from TLE"
  },
  {
    "OBJECT_NAME": "STARLINK-30191",
    "OBJECT_ID": "23102K",
    "EPOCH": "2025-11-10T18:58:25.622112",
    "MEAN_MOTION": 15.27577014,
    "ECCENTRICITY": 0.0001634,
    "INCLINATION": 43.0021,
    "RA_OF_ASC_NODE": 138.1217,
    "ARG_OF_PERICENTER": 263.5982,
    "MEAN_ANOMALY": 96.4683,
    "EPHEMERIS_TYPE": 0,
    "CLASSIFICATION_TYPE": "U",
    "NORAD_CAT_ID": 57413,
    "ELEMENT_SET_NO": 999,
    "REV_AT_EPOCH": 12878,
    "BSTAR": 0.00021343000000000002,
    "MEAN_MOTION_DOT": 5.615e-05,
    "MEAN_MOTION_DDOT": 0.0,
    "TLE_LINE1": "1 57413U 23102K   25314.79057433  .00005615  00000+0  21343-3 0  9993",
    "TLE_LINE2": "2 57413  43.0021 138.1217 0001634 263.5982  96.4683 15.27577014128785",
    "COMMENT": "Grouped by shell and plane from TLE"
  }
]